[{"OBJECT_NAME":"ATLAS CENTAUR 2","OBJECT_ID":"1963-047A","EPOCH":"2026-03-26T03:48:13.631040","MEAN_MOTION":14.12129837,"ECCENTRICITY":0.05474213,"INCLINATION":30.3561,"RA_OF_ASC_NODE":103.5989,"ARG_OF_PERICENTER":225.4385,"MEAN_ANOMALY":130.0251,"EPHEMERIS_TYPE":0,"CLASSIFICATION_TYPE":"U","NORAD_CAT_ID":694,"ELEMENT_SET_NO":999,"REV_AT_EPOCH":13395,"BSTAR":0.00023297328,"MEAN_MOTION_DOT":2.024e-5,"MEAN_MOTION_DDOT":0},{"OBJECT_NAME":"THOR AGENA D R/B","OBJECT_ID":"1964-002A","EPOCH":"2026-03-25T23:43:40.035648","MEAN_MOTION":14.34028351,"ECCENTRICITY":0.00324295,"INCLINATION":99.1217,"RA_OF_ASC_NODE":99.2144,"ARG_OF_PERICENTER":209.5065,"MEAN_ANOMALY":150.4288,"EPHEMERIS_TYPE":0,"CLASSIFICATION_TYPE":"U","NORAD_CAT_ID":733,"ELEMENT_SET_NO":999,"REV_AT_EPOCH":24063,"BSTAR":7.8035215e-5,"MEAN_MOTION_DOT":1.7e-6,"MEAN_MOTION_DDOT":0},{"OBJECT_NAME":"SL-3 R/B","OBJECT_ID":"1964-053B","EPOCH":"2026-03-26T06:04:10.372512","MEAN_MOTION":14.61379128,"ECCENTRICITY":0.0080327,"INCLINATION":65.0756,"RA_OF_ASC_NODE":282.6761,"ARG_OF_PERICENTER":287.0107,"MEAN_ANOMALY":72.2203,"EPHEMERIS_TYPE":0,"CLASSIFICATION_TYPE":"U","NORAD_CAT_ID":877,"ELEMENT_SET_NO":999,"REV_AT_EPOCH":26921,"BSTAR":5.9142782e-5,"MEAN_MOTION_DOT":1.8e-6,"MEAN_MOTION_DDOT":0},{"OBJECT_NAME":"SL-8 R/B","OBJECT_ID":"1967-045B","EPOCH":"2026-03-26T02:44:30.016320","MEAN_MOTION":14.45635438,"ECCENTRICITY":0.00647733,"INCLINATION":74.0116,"RA_OF_ASC_NODE":317.4173,"ARG_OF_PERICENTER":320.0353,"MEAN_ANOMALY":39.6046,"EPHEMERIS_TYPE":0,"CLASSIFICATION_TYPE":"U","NORAD_CAT_ID":2802,"ELEMENT_SET_NO":999,"REV_AT_EPOCH":9139,"BSTAR":8.4966123e-5,"MEAN_MOTION_DOT":2.79e-6,"MEAN_MOTION_DDOT":0},{"OBJECT_NAME":"SL-8 R/B","OBJECT_ID":"1968-040B","EPOCH":"2026-03-26T06:43:30.400608","MEAN_MOTION":15.03362613,"ECCENTRICITY":0.00233233,"INCLINATION":74.0295,"RA_OF_ASC_NODE":279.7893,"ARG_OF_PERICENTER":97.0351,"MEAN_ANOMALY":263.3491,"EPHEMERIS_TYPE":0,"CLASSIFICATION_TYPE":"U","NORAD_CAT_ID":3230,"ELEMENT_SET_NO":999,"REV_AT_EPOCH":9250,"BSTAR":0.0002557202,"MEAN_MOTION_DOT":3.453e-5,"MEAN_MOTION_DDOT":0},{"OBJECT_NAME":"OAO 2","OBJECT_ID":"1968-110A","EPOCH":"2026-03-26T06:30:18.464256","MEAN_MOTION":14.47316816,"ECCENTRICITY":0.00059414,"INCLINATION":34.9925,"RA_OF_ASC_NODE":172.6427,"ARG_OF_PERICENTER":325.8862,"MEAN_ANOMALY":34.1447,"EPHEMERIS_TYPE":0,"CLASSIFICATION_TYPE":"U","NORAD_CAT_ID":3597,"ELEMENT_SET_NO":999,"REV_AT_EPOCH":2150,"BSTAR":6.7236556e-5,"MEAN_MOTION_DOT":2.31e-6,"MEAN_MOTION_DDOT":0},{"OBJECT_NAME":"ISIS 1","OBJECT_ID":"1969-009A","EPOCH":"2026-03-26T04:20:47.456448","MEAN_MOTION":11.30418393,"ECCENTRICITY":0.17078588,"INCLINATION":88.4514,"RA_OF_ASC_NODE":153.5092,"ARG_OF_PERICENTER":55.8955,"MEAN_ANOMALY":319.2545,"EPHEMERIS_TYPE":0,"CLASSIFICATION_TYPE":"U","NORAD_CAT_ID":3669,"ELEMENT_SET_NO":999,"REV_AT_EPOCH":35039,"BSTAR":6.4894185e-5,"MEAN_MOTION_DOT":1.12e-6,"MEAN_MOTION_DDOT":0},{"OBJECT_NAME":"SERT 2","OBJECT_ID":"1970-009A","EPOCH":"2026-03-26T06:42:09.482688","MEAN_MOTION":13.58731359,"ECCENTRICITY":0.00055742,"INCLINATION":99.278,"RA_OF_ASC_NODE":27.4669,"ARG_OF_PERICENTER":117.1346,"MEAN_ANOMALY":5.2923,"EPHEMERIS_TYPE":0,"CLASSIFICATION_TYPE":"U","NORAD_CAT_ID":4327,"ELEMENT_SET_NO":999,"REV_AT_EPOCH":78214,"BSTAR":7.3013867e-5,"MEAN_MOTION_DOT":1.2e-7,"MEAN_MOTION_DDOT":0},{"OBJECT_NAME":"SL-3 R/B","OBJECT_ID":"1971-028B","EPOCH":"2026-03-26T05:59:40.566912","MEAN_MOTION":15.62572728,"ECCENTRICITY":0.00141138,"INCLINATION":81.2368,"RA_OF_ASC_NODE":31.5555,"ARG_OF_PERICENTER":215.9487,"MEAN_ANOMALY":144.0819,"EPHEMERIS_TYPE":0,"CLASSIFICATION_TYPE":"U","NORAD_CAT_ID":5118,"ELEMENT_SET_NO":999,"REV_AT_EPOCH":99125,"BSTAR":0.00045287619,"MEAN_MOTION_DOT":0.00040731,"MEAN_MOTION_DDOT":0},{"OBJECT_NAME":"ASTEX 1","OBJECT_ID":"1971-089A","EPOCH":"2026-03-26T05:42:33.448032","MEAN_MOTION":14.50786248,"ECCENTRICITY":0.00167314,"INCLINATION":92.7097,"RA_OF_ASC_NODE":157.1086,"ARG_OF_PERICENTER":36.231,"MEAN_ANOMALY":324.0026,"EPHEMERIS_TYPE":0,"CLASSIFICATION_TYPE":"U","NORAD_CAT_ID":5560,"ELEMENT_SET_NO":999,"REV_AT_EPOCH":86470,"BSTAR":0.00010623814,"MEAN_MOTION_DOT":4.18e-6,"MEAN_MOTION_DDOT":0},{"OBJECT_NAME":"SL-8 R/B","OBJECT_ID":"1971-119B","EPOCH":"2026-03-26T06:49:26.742720","MEAN_MOTION":14.3818434,"ECCENTRICITY":0.05467157,"INCLINATION":73.886,"RA_OF_ASC_NODE":144.6944,"ARG_OF_PERICENTER":107.8181,"MEAN_ANOMALY":258.3379,"EPHEMERIS_TYPE":0,"CLASSIFICATION_TYPE":"U","NORAD_CAT_ID":5730,"ELEMENT_SET_NO":999,"REV_AT_EPOCH":65787,"BSTAR":0.00035598963,"MEAN_MOTION_DOT":6.792e-5,"MEAN_MOTION_DDOT":0},{"OBJECT_NAME":"OAO 3 (COPERNICUS)","OBJECT_ID":"1972-065A","EPOCH":"2026-03-26T00:46:29.955360","MEAN_MOTION":14.60010486,"ECCENTRICITY":0.00072813,"INCLINATION":35.0049,"RA_OF_ASC_NODE":204.2027,"ARG_OF_PERICENTER":292.8282,"MEAN_ANOMALY":235.0039,"EPHEMERIS_TYPE":0,"CLASSIFICATION_TYPE":"U","NORAD_CAT_ID":6153,"ELEMENT_SET_NO":999,"REV_AT_EPOCH":84858,"BSTAR":7.1131754e-5,"MEAN_MOTION_DOT":3.26e-6,"MEAN_MOTION_DDOT":0},{"OBJECT_NAME":"ATLAS CENTAUR R/B","OBJECT_ID":"1972-065B","EPOCH":"2026-03-26T07:33:00.192384","MEAN_MOTION":14.77732108,"ECCENTRICITY":0.00331648,"INCLINATION":35.0006,"RA_OF_ASC_NODE":208.3204,"ARG_OF_PERICENTER":151.0162,"MEAN_ANOMALY":209.2387,"EPHEMERIS_TYPE":0,"CLASSIFICATION_TYPE":"U","NORAD_CAT_ID":6155,"ELEMENT_SET_NO":999,"REV_AT_EPOCH":84372,"BSTAR":0.00018362045,"MEAN_MOTION_DOT":1.327e-5,"MEAN_MOTION_DDOT":0},{"OBJECT_NAME":"SL-8 R/B","OBJECT_ID":"1975-112B","EPOCH":"2026-03-26T03:03:52.745184","MEAN_MOTION":14.38213133,"ECCENTRICITY":0.00145165,"INCLINATION":74.0633,"RA_OF_ASC_NODE":348.6764,"ARG_OF_PERICENTER":75.1057,"MEAN_ANOMALY":285.1704,"EPHEMERIS_TYPE":0,"CLASSIFICATION_TYPE":"U","NORAD_CAT_ID":8459,"ELEMENT_SET_NO":999,"REV_AT_EPOCH":63423,"BSTAR":8.7565459e-5,"MEAN_MOTION_DOT":2.4e-6,"MEAN_MOTION_DDOT":0},{"OBJECT_NAME":"SL-3 R/B","OBJECT_ID":"1977-057B","EPOCH":"2026-03-26T05:26:35.621088","MEAN_MOTION":15.45953218,"ECCENTRICITY":0.00066072,"INCLINATION":97.5798,"RA_OF_ASC_NODE":257.8833,"ARG_OF_PERICENTER":214.8473,"MEAN_ANOMALY":145.2344,"EPHEMERIS_TYPE":0,"CLASSIFICATION_TYPE":"U","NORAD_CAT_ID":10114,"ELEMENT_SET_NO":999,"REV_AT_EPOCH":67088,"BSTAR":0.00026664538,"MEAN_MOTION_DOT":0.00012906,"MEAN_MOTION_DDOT":0},{"OBJECT_NAME":"SEASAT 1","OBJECT_ID":"1978-064A","EPOCH":"2026-03-26T03:59:49.373088","MEAN_MOTION":14.46173411,"ECCENTRICITY":0.00025845,"INCLINATION":108.008,"RA_OF_ASC_NODE":160.0724,"ARG_OF_PERICENTER":277.9475,"MEAN_ANOMALY":82.1377,"EPHEMERIS_TYPE":0,"CLASSIFICATION_TYPE":"U","NORAD_CAT_ID":10967,"ELEMENT_SET_NO":999,"REV_AT_EPOCH":50889,"BSTAR":0.00011080213,"MEAN_MOTION_DOT":2.59e-6,"MEAN_MOTION_DDOT":0},{"OBJECT_NAME":"SL-14 R/B","OBJECT_ID":"1979-011B","EPOCH":"2026-03-26T01:54:34.231968","MEAN_MOTION":14.91928157,"ECCENTRICITY":0.00162073,"INCLINATION":82.5207,"RA_OF_ASC_NODE":81.0132,"ARG_OF_PERICENTER":8.7221,"MEAN_ANOMALY":351.4277,"EPHEMERIS_TYPE":0,"CLASSIFICATION_TYPE":"U","NORAD_CAT_ID":11267,"ELEMENT_SET_NO":999,"REV_AT_EPOCH":53122,"BSTAR":6.2114376e-5,"MEAN_MOTION_DOT":6.55e-6,"MEAN_MOTION_DDOT":0}]
