ATLAS CENTAUR 2         
1 00694U 63047A   26085.15849110  .00002024  00000+0  23297-3 0  9992
2 00694  30.3561 103.5989 0547421 225.4385 130.0251 14.12129837133957
THOR AGENA D R/B        
1 00733U 64002A   26084.98865782  .00000170  00000+0  78035-4 0  9992
2 00733  99.1217  99.2144 0032429 209.5065 150.4288 14.34028351240634
SL-3 R/B                
1 00877U 64053B   26085.25289783  .00000180  00000+0  59143-4 0  9999
2 00877  65.0756 282.6761 0080327 287.0107  72.2203 14.61379128269218
SL-8 R/B                
1 02802U 67045B   26085.11423630  .00000279  00000+0  84966-4 0  9999
2 02802  74.0116 317.4173 0064773 320.0353  39.6046 14.45635438 91395
SL-8 R/B                
1 03230U 68040B   26085.28021297  .00003453  00000+0  25572-3 0  9996
2 03230  74.0295 279.7893 0023323  97.0351 263.3491 15.03362613 92504
OAO 2                   
1 03597U 68110A   26085.27104704  .00000231  00000+0  67237-4 0  9990
2 03597  34.9925 172.6427 0005941 325.8862  34.1447 14.47316816 21502
ISIS 1                  
1 03669U 69009A   26085.18110482  .00000112  00000+0  64894-4 0  9992
2 03669  88.4514 153.5092 1707858  55.8955 319.2545 11.30418393350396
SERT 2                  
1 04327U 70009A   26085.27927642  .00000012  00000+0  73014-4 0  9993
2 04327  99.2780  27.4669 0005574 117.1346   5.2923 13.58731359782149
SL-3 R/B                
1 05118U 71028B   26085.24977508  .00040731  00000+0  45288-3 0  9990
2 05118  81.2368  31.5555 0014113 215.9487 144.0819 15.62572728991253
ASTEX 1                 
1 05560U 71089A   26085.23788713  .00000418  00000+0  10624-3 0  9999
2 05560  92.7097 157.1086 0016731  36.2310 324.0026 14.50786248864700
SL-8 R/B                
1 05730U 71119B   26085.28433730  .00006792  00000+0  35599-3 0  9992
2 05730  73.8860 144.6944 0546715 107.8181 258.3379 14.38184340657871
OAO 3 (COPERNICUS)      
1 06153U 72065A   26085.03229115  .00000326  00000+0  71132-4 0  9997
2 06153  35.0049 204.2027 0007281 292.8282 235.0039 14.60010486848581
ATLAS CENTAUR R/B       
1 06155U 72065B   26085.31458556  .00001327  00000+0  18362-3 0  9990
2 06155  35.0006 208.3204 0033164 151.0162 209.2387 14.77732108843720
SL-8 R/B                
1 08459U 75112B   26085.12769381  .00000240  00000+0  87565-4 0  9990
2 08459  74.0633 348.6764 0014516  75.1057 285.1704 14.38213133634235
SL-3 R/B                
1 10114U 77057B   26085.22680117  .00012906  00000+0  26665-3 0  9996
2 10114  97.5798 257.8833 0006607 214.8473 145.2344 15.45953218670883
SEASAT 1                
1 10967U 78064A   26085.16654367  .00000259  00000+0  11080-3 0  9995
2 10967 108.0080 160.0724 0002584 277.9475  82.1377 14.46173411508892
SL-14 R/B               
1 11267U 79011B   26085.07956287  .00000655  00000+0  62114-4 0  9993
2 11267  82.5207  81.0132 0016207   8.7221 351.4277 14.91928157531223
